{
  "countries": [
    {
      "name": "ĞÑ„Ğ³Ğ°Ğ½Ğ¸ÑÑ‚Ğ°Ğ½",
      "flag": " ğŸ‡¦ğŸ‡« ",
      "code": "AF",
      "dial_code": "+93"
    },
    {
      "name": "ĞĞ»Ğ°Ğ½Ğ´ÑĞºĞ¸Ğµ Ğ¾ÑÑ‚Ñ€Ğ¾Ğ²Ğ°",
      "flag": " ğŸ‡¦ğŸ‡½ ",
      "code": "AX",
      "dial_code": "+358"
    },
    {
      "name": "ĞĞ»Ğ±Ğ°Ğ½Ğ¸Ñ",
      "flag": " ğŸ‡¦ğŸ‡± ",
      "code": "AL",
      "dial_code": "+355"
    },
    {
      "name": "ĞĞ»Ğ¶Ğ¸Ñ€",
      "flag": " ğŸ‡©ğŸ‡¿ ",
      "code": "DZ",
      "dial_code": "+213"
    },
    {
      "name": "ĞĞ¼ĞµÑ€Ğ¸ĞºĞ°Ğ½ÑĞºĞ¾Ğµ Ğ¡Ğ°Ğ¼Ğ¾Ğ°",
      "flag": " ğŸ‡¦ğŸ‡¸ ",
      "code": "AS",
      "dial_code": "+1684"
    },
    {
      "name": "ĞĞ½Ğ´Ğ¾Ñ€Ñ€Ğ°",
      "flag": " ğŸ‡¦ğŸ‡© ",
      "code": "ĞĞ‘ĞªĞ¯Ğ’Ğ›Ğ•ĞĞ˜Ğ•",
      "dial_code": "+376"
    },
    {
      "name": "ĞĞ½Ğ³Ğ¾Ğ»Ğ°",
      "flag": " ğŸ‡¦ğŸ‡´ ",
      "code": "ĞĞ",
      "dial_code": "+244"
    },
    {
      "name": "ĞĞ½Ğ³Ğ¸Ğ»ÑŒÑ",
      "flag": " ğŸ‡¦ğŸ‡® ",
      "code": "AI",
      "dial_code": "+1264"
    },
    {
      "name": "ĞĞ½Ñ‚Ğ°Ñ€ĞºÑ‚Ğ¸Ğ´Ğ°",
      "flag": " ğŸ‡¦ğŸ‡¶ ",
      "code": "AQ",
      "dial_code": "+672"
    },
    {
      "name": "ĞĞ½Ñ‚Ğ¸Ğ³ÑƒĞ° Ğ¸ Ğ‘Ğ°Ñ€Ğ±ÑƒĞ´Ğ°",
      "flag": " ğŸ‡¦ğŸ‡¬ ",
      "code": "AG",
      "dial_code": "+1268"
    },
    {
      "name": "ĞÑ€Ğ³ĞµĞ½Ñ‚Ğ¸Ğ½Ğ°",
      "flag": " ğŸ‡¦ğŸ‡· ",
      "code": "ĞĞ ",
      "dial_code": "+54"
    },
    {
      "name": "ĞÑ€Ğ¼ĞµĞ½Ğ¸Ñ",
      "flag": " ğŸ‡¦ğŸ‡² ",
      "code": "AM",
      "dial_code": "+374"
    },
    {
      "name": "ĞÑ€ÑƒĞ±Ğ°",
      "flag": " ğŸ‡¦ğŸ‡¼ ",
      "code": "AW",
      "dial_code": "+297"
    },
    {
      "name": "ĞĞ²ÑÑ‚Ñ€Ğ°Ğ»Ğ¸Ñ",
      "flag": " ğŸ‡¦ğŸ‡º ",
      "code": "AU",
      "dial_code": "+61"
    },
    {
      "name": "ĞĞ²ÑÑ‚Ñ€Ğ¸Ñ",
      "flag": " ğŸ‡¦ğŸ‡¹ ",
      "code": "AT",
      "dial_code": "+43"
    },
    {
      "name": "ĞĞ·ĞµÑ€Ğ±Ğ°Ğ¹Ğ´Ğ¶Ğ°Ğ½",
      "flag": " ğŸ‡¦ğŸ‡¿ ",
      "code": "AZ",
      "dial_code": "+994"
    },
    {
      "name": "Ğ‘Ğ°Ğ³Ğ°Ğ¼ÑĞºĞ¸Ğµ Ğ¾ÑÑ‚Ñ€Ğ¾Ğ²Ğ°",
      "flag": " ğŸ‡§ğŸ‡¸ ",
      "code": "BS",
      "dial_code": "+1242"
    },
    {
      "name": "Ğ‘Ğ°Ñ…Ñ€ĞµĞ¹Ğ½",
      "flag": " ğŸ‡§ğŸ‡­ ",
      "code": "BH",
      "dial_code": "+973"
    },
    {
      "name": "Ğ‘Ğ°Ğ½Ğ³Ğ»Ğ°Ğ´ĞµÑˆ",
      "flag": " ğŸ‡§ğŸ‡© ",
      "code": "BD",
      "dial_code": "+880"
    },
    {
      "name": "Ğ‘Ğ°Ñ€Ğ±Ğ°Ğ´Ğ¾Ñ",
      "flag": " ğŸ‡§ğŸ‡§ ",
      "code": "BB",
      "dial_code": "+1246"
    },
    {
      "name": "Ğ‘ĞµĞ»Ğ°Ñ€ÑƒÑÑŒ",
      "flag": " ğŸ‡§ğŸ‡¾ ",
      "code": "BY",
      "dial_code": "+375"
    },
    {
      "name": "Ğ‘ĞµĞ»ÑŒĞ³Ğ¸Ñ",
      "flag": " ğŸ‡§ğŸ‡ª ",
      "code": "Ğ‘Ğ«Ğ¢Ğ¬",
      "dial_code": "+32"
    },
    {
      "name": "Ğ‘ĞµĞ»Ğ¸Ğ·",
      "flag": " ğŸ‡§ğŸ‡¿ ",
      "code": "BZ",
      "dial_code": "+501"
    },
    {
      "name": "Ğ‘ĞµĞ½Ğ¸Ğ½",
      "flag": " ğŸ‡§ğŸ‡¯ ",
      "code": "BJ",
      "dial_code": "+229"
    },
    {
      "name": "Ğ‘ĞµÑ€Ğ¼ÑƒĞ´ÑĞºĞ¸Ğµ Ğ¾ÑÑ‚Ñ€Ğ¾Ğ²Ğ°",
      "flag": " ğŸ‡§ğŸ‡² ",
      "code": "BM",
      "dial_code": "+1441"
    },
    {
      "name": "Ğ‘ÑƒÑ‚Ğ°Ğ½",
      "flag": " ğŸ‡§ğŸ‡¹ ",
      "code": "BT",
      "dial_code": "+975"
    },
    {
      "name": "Ğ‘Ğ¾Ğ»Ğ¸Ğ²Ğ¸Ñ",
      "flag": " ğŸ‡§ğŸ‡´ ",
      "code": "BO",
      "dial_code": "+591"
    },
    {
      "name": "Ğ‘Ğ¾ÑĞ½Ğ¸Ñ Ğ¸ Ğ“ĞµÑ€Ñ†ĞµĞ³Ğ¾Ğ²Ğ¸Ğ½Ğ°",
      "flag": " ğŸ‡§ğŸ‡¦ ",
      "code": "BA",
      "dial_code": "+387"
    },
    {
      "name": "Ğ‘Ğ¾Ñ‚ÑĞ²Ğ°Ğ½Ğ°",
      "flag": " ğŸ‡§ğŸ‡¼ ",
      "code": "BW",
      "dial_code": "+267"
    },
    {
      "name": "ĞÑÑ‚Ñ€Ğ¾Ğ² Ğ‘ÑƒĞ²Ğµ",
      "flag": " ğŸ‡§ğŸ‡» ",
      "code": "BV",
      "dial_code": "+47"
    },
    {
      "name": "Ğ‘Ñ€Ğ°Ğ·Ğ¸Ğ»Ğ¸Ñ",
      "flag": " ğŸ‡§ğŸ‡· ",
      "code": "BR",
      "dial_code": "+55"
    },
    {
      "name": "Ğ‘Ñ€Ğ¸Ñ‚Ğ°Ğ½ÑĞºĞ°Ñ Ñ‚ĞµÑ€Ñ€Ğ¸Ñ‚Ğ¾Ñ€Ğ¸Ñ Ğ² Ğ˜Ğ½Ğ´Ğ¸Ğ¹ÑĞºĞ¾Ğ¼ Ğ¾ĞºĞµĞ°Ğ½Ğµ",
      "flag": " ğŸ‡®ğŸ‡´ ",
      "code": "IO",
      "dial_code": "+246"
    },
    {
      "name": "Ğ‘Ñ€ÑƒĞ½ĞµĞ¹-Ğ”Ğ°Ñ€ÑƒÑÑĞ°Ğ»Ğ°Ğ¼",
      "flag": " ğŸ‡§ğŸ‡³ ",
      "code": "BN",
      "dial_code": "+673"
    },
    {
      "name": "Ğ‘Ğ¾Ğ»Ğ³Ğ°Ñ€Ğ¸Ñ",
      "flag": " ğŸ‡§ğŸ‡¬ ",
      "code": "BG",
      "dial_code": "+359"
    },
    {
      "name": "Ğ‘ÑƒÑ€ĞºĞ¸Ğ½Ğ°-Ğ¤Ğ°ÑĞ¾",
      "flag": " ğŸ‡§ğŸ‡« ",
      "code": "BF",
      "dial_code": "+226"
    },
    {
      "name": "Ğ‘ÑƒÑ€ÑƒĞ½Ğ´Ğ¸",
      "flag": " ğŸ‡§ğŸ‡® ",
      "code": "Ğ‘Ğ˜",
      "dial_code": "+257"
    },
    {
      "name": "ĞšĞ°Ğ¼Ğ±Ğ¾Ğ´Ğ¶Ğ°",
      "flag": " ğŸ‡°ğŸ‡­ ",
      "code": "KH",
      "dial_code": "+855"
    },
    {
      "name": "ĞšĞ°Ğ¼ĞµÑ€ÑƒĞ½",
      "flag": " ğŸ‡¨ğŸ‡² ",
      "code": "CM",
      "dial_code": "+237"
    },
    {
      "name": "ĞšĞ°Ğ½Ğ°Ğ´Ğ°",
      "flag": " ğŸ‡¨ğŸ‡¦ ",
      "code": "ĞšĞ°Ğ»Ğ¸Ñ„Ğ¾Ñ€Ğ½Ğ¸Ñ",
      "dial_code": "+1"
    },
    {
      "name": "ĞšĞ°Ğ±Ğ¾-Ğ’ĞµÑ€Ğ´Ğµ",
      "flag": " ğŸ‡¨ğŸ‡» ",
      "code": "Ñ€ĞµĞ·ÑĞ¼Ğµ",
      "dial_code": "+238"
    },
    {
      "name": "ĞšĞ°Ğ¹Ğ¼Ğ°Ğ½Ğ¾Ğ²Ñ‹ Ğ¾ÑÑ‚Ñ€Ğ¾Ğ²Ğ°",
      "flag": " ğŸ‡°ğŸ‡¾ ",
      "code": "KY",
      "dial_code": "+345"
    },
    {
      "name": "Ğ¦ĞµĞ½Ñ‚Ñ€Ğ°Ğ»ÑŒĞ½Ğ¾Ğ°Ñ„Ñ€Ğ¸ĞºĞ°Ğ½ÑĞºĞ°Ñ Ğ ĞµÑĞ¿ÑƒĞ±Ğ»Ğ¸ĞºĞ°",
      "flag": " ğŸ‡¨ğŸ‡« ",
      "code": "CF",
      "dial_code": "+236"
    },
    {
      "name": "Ğ§Ğ°Ğ´",
      "flag": " ğŸ‡¹ğŸ‡© ",
      "code": "TD",
      "dial_code": "+235"
    },
    {
      "name": "Ğ§Ğ¸Ğ»Ğ¸",
      "flag": " ğŸ‡¨ğŸ‡± ",
      "code": "CL",
      "dial_code": "+56"
    },
    {
      "name": "ĞšĞ¸Ñ‚Ğ°Ğ¹",
      "flag": " ğŸ‡¨ğŸ‡³ ",
      "code": "CN",
      "dial_code": "+86"
    },
    {
      "name": "ĞÑÑ‚Ñ€Ğ¾Ğ² Ğ Ğ¾Ğ¶Ğ´ĞµÑÑ‚Ğ²Ğ°",
      "flag": " ğŸ‡¨ğŸ‡½ ",
      "code": "CX",
      "dial_code": "+61"
    },
    {
      "name": "ĞšĞ¾ĞºĞ¾ÑĞ¾Ğ²Ñ‹Ğµ Ğ¾ÑÑ‚Ñ€Ğ¾Ğ²Ğ°",
      "flag": " ğŸ‡¨ğŸ‡¨ ",
      "code": "CC",
      "dial_code": "+61"
      .
    },
    {
      "name": "ĞšĞ¾Ğ»ÑƒĞ¼Ğ±Ğ¸Ñ",
      "flag": " ğŸ‡¨ğŸ‡´ ",
      "code": "CO",
      "dial_code": "+57"
    },
    {
      "name": "ĞšĞ¾Ğ¼Ğ¾Ñ€ÑĞºĞ¸Ğµ Ğ¾ÑÑ‚Ñ€Ğ¾Ğ²Ğ°",
      "flag": " ğŸ‡°ğŸ‡² ",
      "code": "ĞšĞœ",
      "dial_code": "+269"
    },
    {
      "name": "ĞšĞ¾Ğ½Ğ³Ğ¾",
      "flag": " ğŸ‡¨ğŸ‡¬ ",
      "code": "CG",
      "dial_code": "+242"
    },
    {
      "name": "Ğ”ĞµĞ¼Ğ¾ĞºÑ€Ğ°Ñ‚Ğ¸Ñ‡ĞµÑĞºĞ°Ñ Ğ ĞµÑĞ¿ÑƒĞ±Ğ»Ğ¸ĞºĞ° ĞšĞ¾Ğ½Ğ³Ğ¾",
      "flag": " ğŸ‡¨ğŸ‡© ",
      "code": "CD",
      "dial_code": "+243"
    },
    {
      "name": "ĞÑÑ‚Ñ€Ğ¾Ğ²Ğ° ĞšÑƒĞºĞ°",
      "flag": " ğŸ‡¨ğŸ‡° ",
      "code": "CK",
      "dial_code": "+682"
    },
    {
      "name": "ĞšĞ¾ÑÑ‚Ğ°-Ğ Ğ¸ĞºĞ°",
      "flag": " ğŸ‡¨ğŸ‡· ",
      "code": "CR",
      "dial_code": "+506"
    },
    {
      "name": "ĞšĞ¾Ñ‚-Ğ´'Ğ˜Ğ²ÑƒĞ°Ñ€",
      "flag": " ğŸ‡¨ğŸ‡® ",
      "code": "CI",
      "dial_code": "+225"
    },
    {
      "name": "Ğ¥Ğ¾Ñ€Ğ²Ğ°Ñ‚Ğ¸Ñ",
      "flag": " ğŸ‡­ğŸ‡· ",
      "code": "HR",
      "dial_code": "+385"
    },
    {
      "name": "ĞšÑƒĞ±Ğ°",
      "flag": " ğŸ‡¨ğŸ‡º ",
      "code": "CU",
      "dial_code": "+53"
    },
    {
      "name": "ĞšĞ¸Ğ¿Ñ€",
      "flag": " ğŸ‡¨ğŸ‡¾ ",
      "code": "CY",
      "dial_code": "+357"
    },
    {
      "name": "Ğ§ĞµÑˆÑĞºĞ°Ñ Ğ ĞµÑĞ¿ÑƒĞ±Ğ»Ğ¸ĞºĞ°",
      "flag": " ğŸ‡¨ğŸ‡¿ ",
      "code": "Ğ§ĞµÑ…Ğ¸Ñ",
      "dial_code": "+420"
    },
    {
      "name": "Ğ”Ğ°Ğ½Ğ¸Ñ",
      "flag": " ğŸ‡©ğŸ‡° ",
      "code": "DK",
      "dial_code": "+45"
    },
    {
      "name": "Ğ”Ğ¶Ğ¸Ğ±ÑƒÑ‚Ğ¸",
      "flag": " ğŸ‡©ğŸ‡¯ ",
      "code": "DJ",
      "dial_code": "+253"
    },
    {
      "name": "Ğ”Ğ¾Ğ¼Ğ¸Ğ½Ğ¸ĞºĞ°",
      "flag": " ğŸ‡©ğŸ‡² ",
      "code": "DM",
      "dial_code": "+1767"
    },
    {
      "name": "Ğ”Ğ¾Ğ¼Ğ¸Ğ½Ğ¸ĞºĞ°Ğ½ÑĞºĞ°Ñ Ğ ĞµÑĞ¿ÑƒĞ±Ğ»Ğ¸ĞºĞ°",
      "flag": " ğŸ‡©ğŸ‡´ ",
      "code": "DO",
      "dial_code": "+1849"
    },
    {
      "name": "Ğ­ĞºĞ²Ğ°Ğ´Ğ¾Ñ€",
      "flag": " ğŸ‡ªğŸ‡¨ ",
      "code": "EC",
      "dial_code": "+593"
    },
    {
      "name": "Ğ•Ğ³Ğ¸Ğ¿ĞµÑ‚",
      "flag": " ğŸ‡ªğŸ‡¬ ",
      "code": "ĞĞĞŸĞ Ğ˜ĞœĞ•Ğ ",
      "dial_code": "+20"
    },
    {
      "name": "Ğ¡Ğ°Ğ»ÑŒĞ²Ğ°Ğ´Ğ¾Ñ€",
      "flag": " ğŸ‡¸ğŸ‡» ",
      "code": "SV",
      "dial_code": "+503"
    },
    {
      "name": "Ğ­ĞºĞ²Ğ°Ñ‚Ğ¾Ñ€Ğ¸Ğ°Ğ»ÑŒĞ½Ğ°Ñ Ğ“Ğ²Ğ¸Ğ½ĞµÑ",
      "flag": " ğŸ‡¬ğŸ‡¶ ",
      "code": "GQ",
      "dial_code": "+240"
    },
    {
      "name": "Ğ­Ñ€Ğ¸Ñ‚Ñ€ĞµÑ",
      "flag": " ğŸ‡ªğŸ‡· ",
      "code": "ER",
      "dial_code": "+291"
    },
    {
      "name": "Ğ­ÑÑ‚Ğ¾Ğ½Ğ¸Ñ",
      "flag": " ğŸ‡ªğŸ‡ª ",
      "code": "EE",
      "dial_code": "+372"
    },
    {
      "name": "Ğ­Ñ„Ğ¸Ğ¾Ğ¿Ğ¸Ñ",
      "flag": " ğŸ‡ªğŸ‡¹ ",
      "code": "ET",
      "dial_code": "+251"
    },
    {
      "name": "ĞœĞ°Ğ»ÑŒĞ²Ğ¸Ğ½ÑĞºĞ¸Ğµ Ğ¾ÑÑ‚Ñ€Ğ¾Ğ²Ğ°",
      "flag": " ğŸ‡«ğŸ‡° ",
      "code": "FK",
      "dial_code": "+500"
    },
    {
      "name": "Ğ¤Ğ¾Ğ»ĞºĞ»ĞµĞ½Ğ´ÑĞºĞ¸Ğµ Ğ¾ÑÑ‚Ñ€Ğ¾Ğ²Ğ°",
      "flag": " ğŸ‡«ğŸ‡° ",
      "code": "FK",
      "dial_code": "+500"
    },
    {
      "name": "Ğ¤Ğ°Ñ€ĞµÑ€ÑĞºĞ¸Ğµ Ğ¾ÑÑ‚Ñ€Ğ¾Ğ²Ğ°",
      "flag": " ğŸ‡«ğŸ‡´ ",
      "code": "FO",
      "dial_code": "+298"
    },
    {
      "name": "Ğ¤Ğ¸Ğ´Ğ¶Ğ¸",
      "flag": " ğŸ‡«ğŸ‡¯ ",
      "code": "FJ",
      "dial_code": "+679"
    },
    {
      "name": "Ğ¤Ğ¸Ğ½Ğ»ÑĞ½Ğ´Ğ¸Ñ",
      "flag": " ğŸ‡«ğŸ‡® ",
      "code": "FI",
      "dial_code": "+358"
    },
    {
      "name": "Ğ¤Ñ€Ğ°Ğ½Ñ†Ğ¸Ñ",
      "flag": " ğŸ‡«ğŸ‡· ",
      "code": "FR",
      "dial_code": "+33"
    },
    {
      "name": "Ğ¤Ñ€Ğ°Ğ½Ñ†ÑƒĞ·ÑĞºĞ°Ñ Ğ“Ğ²Ğ¸Ğ°Ğ½Ğ°",
      "flag": " ğŸ‡¬ğŸ‡« ",
      "code": "GF",
      "dial_code": "+594"
    },
    {
      "name": "Ğ¤Ñ€Ğ°Ğ½Ñ†ÑƒĞ·ÑĞºĞ°Ñ ĞŸĞ¾Ğ»Ğ¸Ğ½ĞµĞ·Ğ¸Ñ",
      "flag": " ğŸ‡µğŸ‡« ",
      "code": "PF",
      "dial_code": "+689"
    },
    {
      "name": "Ğ®Ğ¶Ğ½Ñ‹Ğµ Ñ‚ĞµÑ€Ñ€Ğ¸Ñ‚Ğ¾Ñ€Ğ¸Ğ¸ Ğ¤Ñ€Ğ°Ğ½Ñ†Ğ¸Ğ¸",
      "flag": " ğŸ‡¹ğŸ‡« ",
      "code": "TF",
      "dial_code": "+262"
    },
    {
      "name": "Ğ“Ğ°Ğ±Ğ¾Ğ½",
      "flag": " ğŸ‡¬ğŸ‡¦ ",
      "code": "GA",
      "dial_code": "+241"
    },
    {
      "name": "Ğ“Ğ°Ğ¼Ğ±Ğ¸Ñ",
      "flag": " ğŸ‡¬ğŸ‡² ",
      "code": "GM",
      "dial_code": "+220"
    },
    {
      "name": "Ğ“Ñ€ÑƒĞ·Ğ¸Ñ",
      "flag": " ğŸ‡¬ğŸ‡ª ",
      "code": "GE",
      "dial_code": "+995"
    },
    {
      "name": "Ğ“ĞµÑ€Ğ¼Ğ°Ğ½Ğ¸Ñ",
      "flag": " ğŸ‡©ğŸ‡ª ",
      "code": "DE",
      "dial_code": "+49"
    },
    {
      "name": "Ğ“Ğ°Ğ½Ğ°",
      "flag": " ğŸ‡¬ğŸ‡­ ",
      "code": "GH",
      "dial_code": "+233"
    },
    {
      "name": "Ğ“Ğ¸Ğ±Ñ€Ğ°Ğ»Ñ‚Ğ°Ñ€",
      "flag": " ğŸ‡¬ğŸ‡® ",
      "code": "GI",
      "dial_code": "+350"
    },
    {
      "name": "Ğ“Ñ€ĞµÑ†Ğ¸Ñ",
      "flag": " ğŸ‡¬ğŸ‡· ",
      "code": "GR",
      "dial_code": "+30"
    },
    {
      "name": "Ğ“Ñ€ĞµĞ½Ğ»Ğ°Ğ½Ğ´Ğ¸Ñ",
      "flag": " ğŸ‡¬ğŸ‡± ",
      "code": "GL",
      "dial_code": "+299"
    },
    {
      "name": "Ğ“Ñ€ĞµĞ½Ğ°Ğ´Ğ°",
      "flag": " ğŸ‡¬ğŸ‡© ",
      "code": "GD",
      "dial_code": "+1473"
    },
    {
      "name": "Ğ“Ğ²Ğ°Ğ´ĞµĞ»ÑƒĞ¿Ğ°",
      "flag": " ğŸ‡¬ğŸ‡µ ",
      "code": "GP",
      "dial_code": "+590"
    },
    {
      "name": "Ğ“ÑƒĞ°Ğ¼",
      "flag": " ğŸ‡¬ğŸ‡º ",
      "code": "Ğ“Ğ£",
      "dial_code": "+1671"
    },
    {
      "name": "Ğ“Ğ²Ğ°Ñ‚ĞµĞ¼Ğ°Ğ»Ğ°",
      "flag": " ğŸ‡¬ğŸ‡¹ ",
      "code": "GT",
      "dial_code": "+502"
    },
    {
      "name": "Ğ“ĞµÑ€Ğ½ÑĞ¸",
      "flag": " ğŸ‡¬ğŸ‡¬ ",
      "code": "GG",
      "dial_code": "+44"
    },
    {
      "name": "Ğ“Ğ²Ğ¸Ğ½ĞµÑ",
      "flag": " ğŸ‡¬ğŸ‡³ ",
      "code": "GN",
      "dial_code": "+224"
    },
    {
      "name": "Ğ“Ğ²Ğ¸Ğ½ĞµÑ-Ğ‘Ğ¸ÑĞ°Ñƒ",
      "flag": " ğŸ‡¬ğŸ‡¼ ",
      "code": "GW",
      "dial_code": "+245"
    },
    {
      "name": "Ğ“Ğ°Ğ¹Ğ°Ğ½Ğ°",
      "flag": " ğŸ‡¬ğŸ‡¾ ",
      "code": "GY",
      "dial_code": "+592"
    },
    {
      "name": "Ğ“Ğ°Ğ¸Ñ‚Ğ¸",
      "flag": " ğŸ‡­ğŸ‡¹ ",
      "code": "HT",
      "dial_code": "+509"
    },
    {
      "name": "ĞÑÑ‚Ñ€Ğ¾Ğ²Ğ° Ğ¥ĞµÑ€Ğ´ Ğ¸ ĞœĞ°ĞºĞ´Ğ¾Ğ½Ğ°Ğ»ÑŒĞ´",
      "flag": " ğŸ‡­ğŸ‡² ",
      "code": "HM",
      "dial_code": "+672"
    },
    {
      "name": "Ğ’Ğ°Ñ‚Ğ¸ĞºĞ°Ğ½",
      "flag": " ğŸ‡»ğŸ‡¦ ",
      "code": "VA",
      "dial_code": "+379"
    },
    {
      "name": "Ğ“Ğ¾Ğ½Ğ´ÑƒÑ€Ğ°Ñ",
      "flag": " ğŸ‡­ğŸ‡³ ",
      "code": "HN",
      "dial_code": "+504"
    },
    {
      "name": "Ğ“Ğ¾Ğ½ĞºĞ¾Ğ½Ğ³",
      "flag": " ğŸ‡­ğŸ‡° ",
      "code": "Ğ“Ğ¾Ğ½ĞºĞ¾Ğ½Ğ³",
      "dial_code": "+852"
    },
    {
      "name": "Ğ’ĞµĞ½Ğ³Ñ€Ğ¸Ñ",
      "flag": " ğŸ‡­ğŸ‡º ",
      "code": "HU",
      "dial_code": "+36"
    },
    {
      "name": "Ğ˜ÑĞ»Ğ°Ğ½Ğ´Ğ¸Ñ",
      "flag": " ğŸ‡®ğŸ‡¸ ",
      "code": "IS",
      "dial_code": "+354"
    },
    {
      "name": "Ğ˜Ğ½Ğ´Ğ¸Ñ",
      "flag": " ğŸ‡®ğŸ‡³ ",
      "code": "Ğ’",
      "dial_code": "+91"
    },
    {
      "name": "Ğ˜Ğ½Ğ´Ğ¾Ğ½ĞµĞ·Ğ¸Ñ",
      "flag": "ğŸ‡®ğŸ‡©",
      "code": "ID",
      "dial_code": "+62"
    },
    {
      "name": "Ğ˜Ñ€Ğ°Ğ½",
      "flag": "ğŸ‡®ğŸ‡·",
      "code": "IR",
      "dial_code": "+98"
    },
    {
      "name": "Ğ˜Ñ€Ğ°Ğº",
      "flag": "ğŸ‡®ğŸ‡¶",
      "code": "IQ",
      "dial_code": "+964"
    },
    {
      "name": "Ğ˜Ñ€Ğ»Ğ°Ğ½Ğ´Ğ¸Ñ",
      "flag": "ğŸ‡®ğŸ‡ª",
      "code": "IE",
      "dial_code": "+353"
    },
    {
      "name": "ĞÑÑ‚Ñ€Ğ¾Ğ² ĞœÑĞ½",
      "flag": "ğŸ‡®ğŸ‡²",
      "code": "IM",
      "dial_code": "+44"
    },
    {
      "name": "Ğ˜Ğ·Ñ€Ğ°Ğ¸Ğ»ÑŒ",
      "flag": "ğŸ‡®ğŸ‡±",
      "code": "Ğ˜Ğ»Ğ»Ğ¸Ğ½Ğ¾Ğ¹Ñ",
      "dial_code": "+972"
    },
    {
      "name": "Ğ˜Ñ‚Ğ°Ğ»Ğ¸Ñ",
      "flag": "ğŸ‡®ğŸ‡¹",
      "code": "IT",
      "dial_code": "+39"
    },
    {
      "name": "Ğ¯Ğ¼Ğ°Ğ¹ĞºĞ°",
      "flag": "ğŸ‡¯ğŸ‡²",
      "code": "JM",
      "dial_code": "+1876"
    },
    {
      "name": "Ğ¯Ğ¿Ğ¾Ğ½Ğ¸Ñ",
      "flag": "ğŸ‡¯ğŸ‡µ",
      "code": "JP",
      "dial_code": "+81"
    },
    {
      "name": "Ğ”Ğ¶ĞµÑ€ÑĞ¸",
      "flag": "ğŸ‡¯ğŸ‡ª",
      "code": "JE",
      "dial_code": "+44"
    },
    {
      "name": "Ğ˜Ğ¾Ñ€Ğ´Ğ°Ğ½Ğ¸Ñ",
      "flag": "ğŸ‡¯ğŸ‡´",
      "code": "Ğ”Ğ–Ğ",
      "dial_code": "+962"
    },
    {
      "name": "ĞšĞ°Ğ·Ğ°Ñ…ÑÑ‚Ğ°Ğ½",
      "flag": "ğŸ‡°ğŸ‡¿",
      "code": "KZ",
      "dial_code": "+7"
    },
    {
      "name": "ĞšĞµĞ½Ğ¸Ñ",
      "flag": "ğŸ‡°ğŸ‡ª",
      "code": "KE",
      "dial_code": "+254"
    },
    {
      "name": "ĞšĞ¸Ñ€Ğ¸Ğ±Ğ°Ñ‚Ğ¸",
      "flag": "ğŸ‡°ğŸ‡®",
      "code": "KI",
      "dial_code": "+686"
    },
    {
      "name": "ĞšĞĞ”Ğ ",
      "flag": "ğŸ‡°ğŸ‡µ",
      "code": "ĞšĞŸ",
      "dial_code": "+850"
    },
    {
      "name": "Ğ®Ğ¶Ğ½Ğ°Ñ ĞšĞ¾Ñ€ĞµÑ",
      "flag": "ğŸ‡°ğŸ‡·",
      "code": "KR",
      "dial_code": "+82"
    },
    {
      "name": "ĞšĞ¾ÑĞ¾Ğ²Ğ¾",
      "flag": "ğŸ‡½ğŸ‡°",
      "code": "XK",
      "dial_code": "+383"
    },
    {
      "name": "ĞšÑƒĞ²ĞµĞ¹Ñ‚",
      "flag": "ğŸ‡°ğŸ‡¼",
      "code": "KW",
      "dial_code": "+965"
    },
    {
      "name": "ĞšÑ‹Ñ€Ğ³Ñ‹Ğ·ÑÑ‚Ğ°Ğ½",
      "flag": "ğŸ‡°ğŸ‡¬",
      "code": "ĞšĞ“",
      "dial_code": "+996"
    },
    {
      "name": "Ğ›Ğ°Ğ¾Ñ",
      "flag": "ğŸ‡±ğŸ‡¦",
      "code": "LA",
      "dial_code": "+856"
    },
    {
      "name": "Ğ›Ğ°Ñ‚Ğ²Ğ¸Ñ",
      "flag": "ğŸ‡±ğŸ‡»",
      "code": "LV",
      "dial_code": "+371"
    },
    {
      "name": "Ğ›Ğ¸Ğ²Ğ°Ğ½",
      "flag": "ğŸ‡±ğŸ‡§",
      "code": "LB",
      "dial_code": "+961"
    },
    {
      "name": "Ğ›ĞµÑĞ¾Ñ‚Ğ¾",
      "flag": "ğŸ‡±ğŸ‡¸",
      "code": "LS",
      "dial_code": "+266"
    },
    {
      "name": "Ğ›Ğ¸Ğ±ĞµÑ€Ğ¸Ñ",
      "flag": "ğŸ‡±ğŸ‡·",
      "code": "LR",
      "dial_code": "+231"
    },
    {
      "name": "Ğ›Ğ¸Ğ²Ğ¸Ğ¹ÑĞºĞ°Ñ ĞÑ€Ğ°Ğ±ÑĞºĞ°Ñ Ğ”Ğ¶Ğ°Ğ¼Ğ°Ñ…Ğ¸Ñ€Ğ¸Ñ",
      "flag": "ğŸ‡±ğŸ‡¾",
      "code": "LY",
      "dial_code": "+218"
    },
    {
      "name": "Ğ›Ğ¸Ñ…Ñ‚ĞµĞ½ÑˆÑ‚ĞµĞ¹Ğ½",
      "flag": "ğŸ‡±ğŸ‡®",
      "code": "LI",
      "dial_code": "+423"
    },
    {
      "name": "Ğ›Ğ¸Ñ‚Ğ²Ğ°",
      "flag": "ğŸ‡±ğŸ‡¹",
      "code": "LT",
      "dial_code": "+370"
    },
    {
      "name": "Ğ›ÑĞºÑĞµĞ¼Ğ±ÑƒÑ€Ğ³",
      "flag": "ğŸ‡±ğŸ‡º",
      "code": "LU",
      "dial_code": "+352"
    },
    {
      "name": "ĞœĞ°ĞºĞ°Ğ¾",
      "flag": "ğŸ‡²ğŸ‡´",
      "code": "ĞœĞ",
      "dial_code": "+853"
    },
    {
      "name": "ĞœĞ°ĞºĞµĞ´Ğ¾Ğ½Ğ¸Ñ",
      "flag": "ğŸ‡²ğŸ‡°",
      "code": "ĞœĞš",
      "dial_code": "+389"
    },
    {
      "name": "ĞœĞ°Ğ´Ğ°Ğ³Ğ°ÑĞºĞ°Ñ€",
      "flag": "ğŸ‡²ğŸ‡¬",
      "code": "MG",
      "dial_code": "+261"
    },
    {
      "name": "ĞœĞ°Ğ»Ğ°Ğ²Ğ¸",
      "flag": "ğŸ‡²ğŸ‡¼",
      "code": "MW",
      "dial_code": "+265"
    },
    {
      "name": "ĞœĞ°Ğ»Ğ°Ğ¹Ğ·Ğ¸Ñ",
      "flag": "ğŸ‡²ğŸ‡¾",
      "code": "ĞœĞĞ™",
      "dial_code": "+60"
    },
    {
      "name": "ĞœĞ°Ğ»ÑŒĞ´Ğ¸Ğ²Ñ‹",
      "flag": "ğŸ‡²ğŸ‡»",
      "code": "MV",
      "dial_code": "+960"
    },
    {
      "name": "ĞœĞ°Ğ»Ğ¸",
      "flag": "ğŸ‡²ğŸ‡±",
      "code": "ML",
      "dial_code": "+223"
    },
    {
      "name": "ĞœĞ°Ğ»ÑŒÑ‚Ğ°",
      "flag": "ğŸ‡²ğŸ‡¹",
      "code": "MT",
      "dial_code": "+356"
    },
    {
      "name": "ĞœĞ°Ñ€ÑˆĞ°Ğ»Ğ»Ğ¾Ğ²Ñ‹ Ğ¾ÑÑ‚Ñ€Ğ¾Ğ²Ğ°",
      "flag": "ğŸ‡²ğŸ‡­",
      "code": "MH",
      "dial_code": "+692"
    },
    {
      "name": "ĞœĞ°Ñ€Ñ‚Ğ¸Ğ½Ğ¸ĞºĞ°",
      "flag": "ğŸ‡²ğŸ‡¶",
      "code": "MQ",
      "dial_code": "+596"
    },
    {
      "name": "ĞœĞ°Ğ²Ñ€Ğ¸Ñ‚Ğ°Ğ½Ğ¸Ñ",
      "flag": "ğŸ‡²ğŸ‡·",
      "code": "MR",
      "dial_code": "+222"
    },
    {
      "name": "ĞœĞ°Ğ²Ñ€Ğ¸ĞºĞ¸Ğ¹",
      "flag": "ğŸ‡²ğŸ‡º",
      "code": "MU",
      "dial_code": "+230"
    },
    {
      "name": "ĞœĞ°Ğ¹Ğ¾Ñ‚Ñ‚Ğ°",
      "flag": "ğŸ‡¾ğŸ‡¹",
      "code": "YT",
      "dial_code": "+262"
    },
    {
      "name": "ĞœĞµĞºÑĞ¸ĞºĞ°",
      "flag": "ğŸ‡²ğŸ‡½",
      "code": "MX",
      "dial_code": "+52"
    },
    {
      "name": "ĞœĞ¸ĞºÑ€Ğ¾Ğ½ĞµĞ·Ğ¸Ñ",
      "flag": "ğŸ‡«ğŸ‡²",
      "code": "FM",
      "dial_code": "+691"
    },
    {
      "name": "ĞœĞ¾Ğ»Ğ´Ğ¾Ğ²Ğ°",
      "flag": "ğŸ‡²ğŸ‡©",
      "code": "MD",
      "dial_code": "+373"
    },
    {
      "name": "ĞœĞ¾Ğ½Ğ°ĞºĞ¾",
      "flag": "ğŸ‡²ğŸ‡¨",
      "code": "MC",
      "dial_code": "+377"
    },
    {
      "name": "ĞœĞ¾Ğ½Ğ³Ğ¾Ğ»Ğ¸Ñ",
      "flag": "ğŸ‡²ğŸ‡³",
      "code": "MN",
      "dial_code": "+976"
    },
    {
      "name": "Ğ§ĞµÑ€Ğ½Ğ¾Ğ³Ğ¾Ñ€Ğ¸Ñ",
      "flag": "ğŸ‡²ğŸ‡ª",
      "code": "Ğ¯",
      "dial_code": "+382"
    },
    {
      "name": "ĞœĞ¾Ğ½Ñ‚ÑĞµÑ€Ñ€Ğ°Ñ‚",
      "flag": "ğŸ‡²ğŸ‡¸",
      "code": "MS",
      "dial_code": "+1664"
    },
    {
      "name": "ĞœĞ°Ñ€Ğ¾ĞºĞºĞ¾",
      "flag": "ğŸ‡²ğŸ‡¦",
      "code": "ĞœĞ",
      "dial_code": "+212"
    },
    {
      "name": "ĞœĞ¾Ğ·Ğ°Ğ¼Ğ±Ğ¸Ğº",
      "flag": "ğŸ‡²ğŸ‡¿",
      "code": "MZ",
      "dial_code": "+258"
    },
    {
      "name": "ĞœÑŒÑĞ½Ğ¼Ğ°",
      "flag": "ğŸ‡²ğŸ‡²",
      "code": "ĞœĞœ",
      "dial_code": "+95"
    },
    {
      "name": "ĞĞ°Ğ¼Ğ¸Ğ±Ğ¸Ñ",
      "flag": "ğŸ‡³ğŸ‡¦",
      "code": "NA",
      "dial_code": "+264"
    },
    {
      "name": "ĞĞ°ÑƒÑ€Ñƒ",
      "flag": "ğŸ‡³ğŸ‡·",
      "code": "NR",
      "dial_code": "+674"
    },
    {
      "name": "ĞĞµĞ¿Ğ°Ğ»",
      "flag": "ğŸ‡³ğŸ‡µ",
      "code": "NP",
      "dial_code": "+977"
    },
    {
      "name": "ĞĞ¸Ğ´ĞµÑ€Ğ»Ğ°Ğ½Ğ´Ñ‹",
      "flag": "ğŸ‡³ğŸ‡±",
      "code": "NL",
      "dial_code": "+31"
    },
    {
      "name": "ĞĞ¸Ğ´ĞµÑ€Ğ»Ğ°Ğ½Ğ´ÑĞºĞ¸Ğµ ĞĞ½Ñ‚Ğ¸Ğ»ÑŒÑĞºĞ¸Ğµ Ğ¾ÑÑ‚Ñ€Ğ¾Ğ²Ğ°",
      "flag": "",
      "code": "AN",
      "dial_code": "+599"
    },
    {
      "name": "ĞĞ¾Ğ²Ğ°Ñ ĞšĞ°Ğ»ĞµĞ´Ğ¾Ğ½Ğ¸Ñ",
      "flag": "ğŸ‡³ğŸ‡¨",
      "code": "Ğ¡ĞµĞ²ĞµÑ€Ğ½Ğ°Ñ ĞšĞ°Ñ€Ğ¾Ğ»Ğ¸Ğ½Ğ°",
      "dial_code": "+687"
    },
    {
      "name": "ĞĞ¾Ğ²Ğ°Ñ Ğ—ĞµĞ»Ğ°Ğ½Ğ´Ğ¸Ñ",
      "flag": "ğŸ‡³ğŸ‡¿",
      "code": "ĞĞ¾Ğ²Ğ°Ñ Ğ—ĞµĞ»Ğ°Ğ½Ğ´Ğ¸Ñ",
      "dial_code": "+64"
    },
    {
      "name": "ĞĞ¸ĞºĞ°Ñ€Ğ°Ğ³ÑƒĞ°",
      "flag": "ğŸ‡³ğŸ‡®",
      "code": "NI",
      "dial_code": "+505"
    },
    {
      "name": "ĞĞ¸Ğ³ĞµÑ€",
      "flag": "ğŸ‡³ğŸ‡ª",
      "code": "NE",
      "dial_code": "+227"
    },
    {
      "name": "ĞĞ¸Ğ³ĞµÑ€Ğ¸Ñ",
      "flag": "ğŸ‡³ğŸ‡¬",
      "code": "NG",
      "dial_code": "+234"
    },
    {
      "name": "ĞĞ¸ÑƒÑ",
      "flag": "ğŸ‡³ğŸ‡º",
      "code": "NU",
      "dial_code": "+683"
    },
    {
      "name": "ĞÑÑ‚Ñ€Ğ¾Ğ² ĞĞ¾Ñ€Ñ„Ğ¾Ğ»Ğº",
      "flag": "ğŸ‡³ğŸ‡«",
      "code": "Ğ¡ĞµĞ²ĞµÑ€Ğ½Ğ°Ñ ĞšĞ°Ñ€Ğ¾Ğ»Ğ¸Ğ½Ğ°",
      "dial_code": "+672"
    },
    {
      "name": "Ğ¡ĞµĞ²ĞµÑ€Ğ½Ñ‹Ğµ ĞœĞ°Ñ€Ğ¸Ğ°Ğ½ÑĞºĞ¸Ğµ Ğ¾ÑÑ‚Ñ€Ğ¾Ğ²Ğ°",
      "flag": "ğŸ‡²ğŸ‡µ",
      "code": "MP",
      "dial_code": "+1670"
    },
    {
      "name": "ĞĞ¾Ñ€Ğ²ĞµĞ³Ğ¸Ñ",
      "flag": "ğŸ‡³ğŸ‡´",
      "code": "ĞĞ•Ğ¢",
      "dial_code": "+47"
    },
    {
      "name": "ĞĞ¼Ğ°Ğ½",
      "flag": "ğŸ‡´ğŸ‡²",
      "code": "ĞĞœ",
      "dial_code": "+968"
    },
    {
      "name": "ĞŸĞ°ĞºĞ¸ÑÑ‚Ğ°Ğ½",
      "flag": "ğŸ‡µğŸ‡°",
      "code": "ĞŸĞš",
      "dial_code": "+92"
    },
    {
      "name": "ĞŸĞ°Ğ»Ğ°Ñƒ",
      "flag": "ğŸ‡µğŸ‡¼",
      "code": "PW",
      "dial_code": "+680"
    },
    {
      "name": "ĞĞºĞºÑƒĞ¿Ğ¸Ñ€Ğ¾Ğ²Ğ°Ğ½Ğ½Ğ°Ñ Ğ¿Ğ°Ğ»ĞµÑÑ‚Ğ¸Ğ½ÑĞºĞ°Ñ Ñ‚ĞµÑ€Ñ€Ğ¸Ñ‚Ğ¾Ñ€Ğ¸Ñ",
      "flag": "ğŸ‡µğŸ‡¸",
      "code": "PS",
      "dial_code": "+970"
    },
    {
      "name": "ĞŸĞ°Ğ½Ğ°Ğ¼Ğ°",
      "flag": "ğŸ‡µğŸ‡¦",
      "code": "ĞŸĞ",
      "dial_code": "+507"
    },
    {
      "name": "ĞŸĞ°Ğ¿ÑƒĞ° - ĞĞ¾Ğ²Ğ°Ñ Ğ“Ğ²Ğ¸Ğ½ĞµÑ",
      "flag": "ğŸ‡µğŸ‡¬",
      "code": "PG",
      "dial_code": "+675"
    },
    {
      "name": "ĞŸĞ°Ñ€Ğ°Ğ³Ğ²Ğ°Ğ¹",
      "flag": "ğŸ‡µğŸ‡¾",
      "code": "PY",
      "dial_code": "+595"
    },
    {
      "name": "ĞŸĞµÑ€Ñƒ",
      "flag": "ğŸ‡µğŸ‡ª",
      "code": "PE",
      "dial_code": "+51"
    },
    {
      "name": "Ğ¤Ğ¸Ğ»Ğ¸Ğ¿Ğ¿Ğ¸Ğ½Ñ‹",
      "flag": "ğŸ‡µğŸ‡­",
      "code": "PH",
      "dial_code": "+63"
    },
    {
      "name": "ĞŸĞ¸Ñ‚ĞºÑÑ€Ğ½",
      "flag": "ğŸ‡µğŸ‡³",
      "code": "PN",
      "dial_code": "+64"
    },
    {
      "name": "ĞŸĞ¾Ğ»ÑŒÑˆĞ°",
      "flag": "ğŸ‡µğŸ‡±",
      "code": "PL",
      "dial_code": "+48"
    },
    {
      "name": "ĞŸĞ¾Ñ€Ñ‚ÑƒĞ³Ğ°Ğ»Ğ¸Ñ",
      "flag": "ğŸ‡µğŸ‡¹",
      "code": "PT",
      "dial_code": "+351"
    },
    {
      "name": "ĞŸÑƒÑÑ€Ñ‚Ğ¾-Ğ Ğ¸ĞºĞ¾",
      "flag": "ğŸ‡µğŸ‡·",
      "code": "PR",
      "dial_code": "+1939"
    },
    {
      "name": "ĞšĞ°Ñ‚Ğ°Ñ€",
      "flag": "ğŸ‡¶ğŸ‡¦",
      "code": "QA",
      "dial_code": "+974"
    },
    {
      "name": "Ğ ÑƒĞ¼Ñ‹Ğ½Ğ¸Ñ",
      "flag": "ğŸ‡·ğŸ‡´",
      "code": "RO",
      "dial_code": "+40"
    },
    {
      "name": "Ğ Ğ¾ÑÑĞ¸Ñ",
      "flag": "ğŸ‡·ğŸ‡º",
      "code": "RU",
      "dial_code": "+7"
    },
    {
      "name": "Ğ ÑƒĞ°Ğ½Ğ´Ğ°",
      "flag": "ğŸ‡·ğŸ‡¼",
      "code": "RW",
      "dial_code": "+250"
    },
    {
      "name": "Ğ’Ğ¾ÑÑĞ¾ĞµĞ´Ğ¸Ğ½ĞµĞ½Ğ¸Ğµ",
      "flag": "ğŸ‡·ğŸ‡ª",
      "code": "RE",
      "dial_code": "+262"
    },
    {
      "name": "Ğ¡ĞµĞ½-Ğ‘Ğ°Ñ€Ñ‚ĞµĞ»ĞµĞ¼Ğ¸",
      "flag": "ğŸ‡§ğŸ‡±",
      "code": "BL",
      "dial_code": "+590"
    },
    {
      "name": "ĞÑÑ‚Ñ€Ğ¾Ğ²Ğ° Ğ¡Ğ²ÑÑ‚Ğ¾Ğ¹ Ğ•Ğ»ĞµĞ½Ñ‹, Ğ’Ğ¾Ğ·Ğ½ĞµÑĞµĞ½Ğ¸Ñ Ğ¸ Ğ¢Ñ€Ğ¸ÑÑ‚Ğ°Ğ½-Ğ´Ğ°-ĞšÑƒĞ½ÑŒÑ",
      "flag": "ğŸ‡¸ğŸ‡­",
      "code": "SH",
      "dial_code": "+290"
    },
    {
      "name": "Ğ¡ĞµĞ½Ñ‚-ĞšĞ¸Ñ‚Ñ Ğ¸ ĞĞµĞ²Ğ¸Ñ",
      "flag": "ğŸ‡°ğŸ‡³",
      "code": "KN",
      "dial_code": "+1869"
    },
    {
      "name": "Ğ¡ĞµĞ½Ñ‚-Ğ›ÑÑĞ¸Ñ",
      "flag": "ğŸ‡±ğŸ‡¨",
      "code": "LC",
      "dial_code": "+1758"
    },
    {
      "name": "Ğ¡ĞµĞ½-ĞœĞ°Ñ€Ñ‚ĞµĞ½",
      "flag": "ğŸ‡²ğŸ‡«",
      "code": "MF",
      "dial_code": "+590"
    },
    {
      "name": "Ğ¡ĞµĞ½-ĞŸÑŒĞµÑ€ Ğ¸ ĞœĞ¸ĞºĞµĞ»Ğ¾Ğ½",
      "flag": "ğŸ‡µğŸ‡²",
      "code": "PM",
      "dial_code": "+508"
    },
    {
      "name": "Ğ¡ĞµĞ½Ñ‚-Ğ’Ğ¸Ğ½ÑĞµĞ½Ñ‚ Ğ¸ Ğ“Ñ€ĞµĞ½Ğ°Ğ´Ğ¸Ğ½Ñ‹",
      "flag": "ğŸ‡»ğŸ‡¨",
      "code": "VC",
      "dial_code": "+1784"
    },
    {
      "name": "Ğ¡Ğ°Ğ¼Ğ¾Ğ°",
      "flag": "ğŸ‡¼ğŸ‡¸",
      "code": "WS",
      "dial_code": "+685"
    },
    {
      "name": "Ğ¡Ğ°Ğ½-ĞœĞ°Ñ€Ğ¸Ğ½Ğ¾",
      "flag": "ğŸ‡¸ğŸ‡²",
      "code": "SM",
      "dial_code": "+378"
    },
    {
      "name": "Ğ¡Ğ°Ğ½-Ğ¢Ğ¾Ğ¼Ğµ Ğ¸ ĞŸÑ€Ğ¸Ğ½ÑĞ¸Ğ¿Ğ¸",
      "flag": "ğŸ‡¸ğŸ‡¹",
      "code": "ST",
      "dial_code": "+239"
    },
    {
      "name": "Ğ¡Ğ°ÑƒĞ´Ğ¾Ğ²ÑĞºĞ°Ñ ĞÑ€Ğ°Ğ²Ğ¸Ñ",
      "flag": "ğŸ‡¸ğŸ‡¦",
      "code": "SA",
      "dial_code": "+966"
    },
    {
      "name": "Ğ¡ĞµĞ½ĞµĞ³Ğ°Ğ»",
      "flag": "ğŸ‡¸ğŸ‡³",
      "code": "SN",
      "dial_code": "+221"
    },
    {
      "name": "Ğ¡ĞµÑ€Ğ±Ğ¸Ñ",
      "flag": "ğŸ‡·ğŸ‡¸",
      "code": "RS",
      "dial_code": "+381"
    },
    {
      "name": "Ğ¡ĞµĞ¹ÑˆĞµĞ»ÑŒÑĞºĞ¸Ğµ Ğ¾ÑÑ‚Ñ€Ğ¾Ğ²Ğ°",
      "flag": "ğŸ‡¸ğŸ‡¨",
      "code": "SC",
      "dial_code": "+248"
    },
    {
      "name": "Ğ¡ÑŒĞµÑ€Ñ€Ğ°-Ğ›ĞµĞ¾Ğ½Ğµ",
      "flag": "ğŸ‡¸ğŸ‡±",
      "code": "SL",
      "dial_code": "+232"
    },
    {
      "name": "Ğ¡Ğ¸Ğ½Ğ³Ğ°Ğ¿ÑƒÑ€",
      "flag": "ğŸ‡¸ğŸ‡¬",
      "code": "SG",
      "dial_code": "+65"
    },
    {
      "name": "Ğ¡Ğ»Ğ¾Ğ²Ğ°ĞºĞ¸Ñ",
      "flag": "ğŸ‡¸ğŸ‡°",
      "code": "SK",
      "dial_code": "+421"
    },
    {
      "name": "Ğ¡Ğ»Ğ¾Ğ²ĞµĞ½Ğ¸Ñ",
      "flag": "ğŸ‡¸ğŸ‡®",
      "code": "SI",
      "dial_code": "+386"
    },
    {
      "name": "Ğ¡Ğ¾Ğ»Ğ¾Ğ¼Ğ¾Ğ½Ğ¾Ğ²Ñ‹ Ğ¾ÑÑ‚Ñ€Ğ¾Ğ²Ğ°",
      "flag": "ğŸ‡¸ğŸ‡§",
      "code": "SB",
      "dial_code": "+677"
    },
    {
      "name": "Ğ¡Ğ¾Ğ¼Ğ°Ğ»Ğ¸",
      "flag": "ğŸ‡¸ğŸ‡´",
      "code": "SO",
      "dial_code": "+252"
    },
    {
      "name": "Ğ®Ğ¶Ğ½Ğ°Ñ ĞÑ„Ñ€Ğ¸ĞºĞ°",
      "flag": "ğŸ‡¿ğŸ‡¦",
      "code": "Ğ—Ğ",
      "dial_code": "+27"
    },
    {
      "name": "Ğ®Ğ¶Ğ½Ñ‹Ğ¹ Ğ¡ÑƒĞ´Ğ°Ğ½",
      "flag": "ğŸ‡¸ğŸ‡¸",
      "code": "SS",
      "dial_code": "+211"
    },
    {
      "name": "Ğ®Ğ¶Ğ½Ğ°Ñ Ğ“ĞµĞ¾Ñ€Ğ³Ğ¸Ñ Ğ¸ Ğ®Ğ¶Ğ½Ñ‹Ğµ Ğ¡Ğ°Ğ½Ğ´Ğ²Ğ¸Ñ‡ĞµĞ²Ñ‹ Ğ¾ÑÑ‚Ñ€Ğ¾Ğ²Ğ°",
      "flag": "ğŸ‡¬ğŸ‡¸",
      "code": "GS",
      "dial_code": "+500"
    },
    {
      "name": "Ğ˜ÑĞ¿Ğ°Ğ½Ğ¸Ñ",
      "flag": "ğŸ‡ªğŸ‡¸",
      "code": "ES",
      "dial_code": "+34"
    },
    {
      "name": "Ğ¨Ñ€Ğ¸-Ğ›Ğ°Ğ½ĞºĞ°",
      "flag": "ğŸ‡±ğŸ‡°",
      "code": "LK",
      "dial_code": "+94"
    },
    {
      "name": "Ğ¡ÑƒĞ´Ğ°Ğ½",
      "flag": "ğŸ‡¸ğŸ‡©",
      "code": "SD",
      "dial_code": "+249"
    },
    {
      "name": "Ğ¡ÑƒÑ€Ğ¸Ğ½Ğ°Ğ¼",
      "flag": "ğŸ‡¸ğŸ‡·",
      "code": "SR",
      "dial_code": "+597"
    },
    {
      "name": "Ğ¨Ğ¿Ğ¸Ñ†Ğ±ĞµÑ€Ğ³ĞµĞ½ Ğ¸ Ğ¯Ğ½-ĞœĞ°Ğ¹ĞµĞ½",
      "flag": "ğŸ‡¸ğŸ‡¯",
      "code": "SJ",
      "dial_code": "+47"
    },
    {
      "name": "Ğ¡Ğ²Ğ°Ğ·Ğ¸Ğ»ĞµĞ½Ğ´",
      "flag": "ğŸ‡¸ğŸ‡¿",
      "code": "SZ",
      "dial_code": "+268"
    },
    {
      "name": "Ğ¨Ğ²ĞµÑ†Ğ¸Ñ",
      "flag": "ğŸ‡¸ğŸ‡ª",
      "code": "SE",
      "dial_code": "+46"
    },
    {
      "name": "Ğ¨Ğ²ĞµĞ¹Ñ†Ğ°Ñ€Ğ¸Ñ",
      "flag": "ğŸ‡¨ğŸ‡­",
      "code": "CH",
      "dial_code": "+41"
    },
    {
      "name": "Ğ¡Ğ¸Ñ€Ğ¸Ğ¹ÑĞºĞ°Ñ ĞÑ€Ğ°Ğ±ÑĞºĞ°Ñ Ğ ĞµÑĞ¿ÑƒĞ±Ğ»Ğ¸ĞºĞ°",
      "flag": "ğŸ‡¸ğŸ‡¾",
      "code": "SY",
      "dial_code": "+963"
    },
    {
      "name": "Ğ¢Ğ°Ğ¹Ğ²Ğ°Ğ½ÑŒ",
      "flag": "ğŸ‡¹ğŸ‡¼",
      "code": "TW",
      "dial_code": "+886"
    },
    {
      "name": "Ğ¢Ğ°Ğ´Ğ¶Ğ¸ĞºĞ¸ÑÑ‚Ğ°Ğ½",
      "flag": "ğŸ‡¹ğŸ‡¯",
      "code": "TJ",
      "dial_code": "+992"
    },
    {
      "name": "Ğ¢Ğ°Ğ½Ğ·Ğ°Ğ½Ğ¸Ñ",
      "flag": "ğŸ‡¹ğŸ‡¿",
      "code": "TZ",
      "dial_code": "+255"
    },
    {
      "name": "Ğ¢Ğ°Ğ¸Ğ»Ğ°Ğ½Ğ´",
      "flag": "ğŸ‡¹ğŸ‡­",
      "code": "TH",
      "dial_code": "+66"
    },
    {
      "name": "Ğ¢Ğ¸Ğ¼Ğ¾Ñ€-Ğ›ĞµÑˆÑ‚Ğ¸",
      "flag": "ğŸ‡¹ğŸ‡±",
      "code": "TL",
      "dial_code": "+670"
    },
    {
      "name": "Ğ¢Ğ¾Ğ³Ğ¾",
      "flag": "ğŸ‡¹ğŸ‡¬",
      "code": "TG",
      "dial_code": "+228"
    },
    {
      "name": "Ğ¢Ğ¾ĞºĞµĞ»Ğ°Ñƒ",
      "flag": "ğŸ‡¹ğŸ‡°",
      "code": "TK",
      "dial_code": "+690"
    },
    {
      "name": "Ğ¢Ğ¾Ğ½Ğ³Ğ°",
      "flag": "ğŸ‡¹ğŸ‡´",
      "code": "ĞšĞĞœĞ£",
      "dial_code": "+676"
    },
    {
      "name": "Ğ¢Ñ€Ğ¸Ğ½Ğ¸Ğ´Ğ°Ğ´ Ğ¸ Ğ¢Ğ¾Ğ±Ğ°Ğ³Ğ¾",
      "flag": "ğŸ‡¹ğŸ‡¹",
      "code": "TT",
      "dial_code": "+1868"
    },
    {
      "name": "Ğ¢ÑƒĞ½Ğ¸Ñ",
      "flag": "ğŸ‡¹ğŸ‡³",
      "code": "TN",
      "dial_code": "+216"
    },
    {
      "name": "Ğ¢ÑƒÑ€Ñ†Ğ¸Ñ",
      "flag": "ğŸ‡¹ğŸ‡·",
      "code": "TR",
      "dial_code": "+90"
    },
    {
      "name": "Ğ¢ÑƒÑ€ĞºĞ¼ĞµĞ½Ğ¸ÑÑ‚Ğ°Ğ½",
      "flag": "ğŸ‡¹ğŸ‡²",
      "code": "TM",
      "dial_code": "+993"
    },
    {
      "name": "ĞÑÑ‚Ñ€Ğ¾Ğ²Ğ° Ğ¢ĞµÑ€ĞºÑ Ğ¸ ĞšĞ°Ğ¹ĞºĞ¾Ñ",
      "flag": "ğŸ‡¹ğŸ‡¨",
      "code": "TC",
      "dial_code": "+1649"
    },
    {
      "name": "Ğ¢ÑƒĞ²Ğ°Ğ»Ñƒ",
      "flag": "ğŸ‡¹ğŸ‡»",
      "code": "TV",
      "dial_code": "+688"
    },
    {
      "name": "Ğ£Ğ³Ğ°Ğ½Ğ´Ğ°",
      "flag": "ğŸ‡ºğŸ‡¬",
      "code": "UG",
      "dial_code": "+256"
    },
    {
      "name": "Ğ£ĞºÑ€Ğ°Ğ¸Ğ½Ğ°",
      "flag": "ğŸ‡ºğŸ‡¦",
      "code": "UA",
      "dial_code": "+380"
    },
    {
      "name": "ĞĞ±ÑŠĞµĞ´Ğ¸Ğ½ĞµĞ½Ğ½Ñ‹Ğµ ĞÑ€Ğ°Ğ±ÑĞºĞ¸Ğµ Ğ­Ğ¼Ğ¸Ñ€Ğ°Ñ‚Ñ‹",
      "flag": "ğŸ‡¦ğŸ‡ª",
      "code": "AE",
      "dial_code": "+971"
    },
    {
      "name": "Ğ’ĞµĞ»Ğ¸ĞºĞ¾Ğ±Ñ€Ğ¸Ñ‚Ğ°Ğ½Ğ¸Ñ",
      "flag": "ğŸ‡¬ğŸ‡§",
      "code": "GB",
      "dial_code": "+44"
    },
    {
      "name": "Ğ¡Ğ¾ĞµĞ´Ğ¸Ğ½ĞµĞ½Ğ½Ñ‹Ğµ Ğ¨Ñ‚Ğ°Ñ‚Ñ‹",
      "flag": "ğŸ‡ºğŸ‡¸",
      "code": "Ğ¡Ğ¨Ğ",
      "dial_code": "+1"
    },
    {
      "name": "Ğ£Ñ€ÑƒĞ³Ğ²Ğ°Ğ¹",
      "flag": "ğŸ‡ºğŸ‡¾",
      "code": "UY",
      "dial_code": "+598"
    },
    {
      "name": "Ğ£Ğ·Ğ±ĞµĞºĞ¸ÑÑ‚Ğ°Ğ½",
      "flag": "ğŸ‡ºğŸ‡¿",
      "code": "UZ",
      "dial_code": "+998"
    },
    {
      "name": "Ğ’Ğ°Ğ½ÑƒĞ°Ñ‚Ñƒ",
      "flag": "ğŸ‡»ğŸ‡º",
      "code": "VU",
      "dial_code": "+678"
    },
    {
      "name": "Ğ’ĞµĞ½ĞµÑÑƒÑĞ»Ğ°, Ğ‘Ğ¾Ğ»Ğ¸Ğ²Ğ°Ñ€Ğ¸Ğ°Ğ½ÑĞºĞ°Ñ Ğ ĞµÑĞ¿ÑƒĞ±Ğ»Ğ¸ĞºĞ° Ğ’ĞµĞ½ĞµÑÑƒÑĞ»Ğ°",
      "flag": "ğŸ‡»ğŸ‡ª",
      "code": "VE",
      "dial_code": "+58"
    },
    {
      "name": "Ğ’ÑŒĞµÑ‚Ğ½Ğ°Ğ¼",
      "flag": "ğŸ‡»ğŸ‡³",
      "code": "VN",
      "dial_code": "+84"
    },
    {
      "name": "Ğ’Ğ¸Ñ€Ğ³Ğ¸Ğ½ÑĞºĞ¸Ğµ Ğ¾ÑÑ‚Ñ€Ğ¾Ğ²Ğ°, Ğ’ĞµĞ»Ğ¸ĞºĞ¾Ğ±Ñ€Ğ¸Ñ‚Ğ°Ğ½Ğ¸Ñ",
      "flag": "ğŸ‡»ğŸ‡¬",
      "code": "VG",
      "dial_code": "+1284"
    },
    {
      "name": "Ğ’Ğ¸Ñ€Ğ³Ğ¸Ğ½ÑĞºĞ¸Ğµ Ğ¾ÑÑ‚Ñ€Ğ¾Ğ²Ğ°, Ğ¡Ğ¨Ğ",
      "flag": "ğŸ‡»ğŸ‡®",
      "code": "VI",
      "dial_code": "+1340"
    },
    {
      "name": "Ğ£Ğ¾Ğ»Ğ»Ğ¸Ñ Ğ¸ Ğ¤ÑƒÑ‚ÑƒĞ½Ğ°",
      "flag": "ğŸ‡¼ğŸ‡«",
      "code": "WF",
      "dial_code": "+681"
    },
    {
      "name": "Ğ™ĞµĞ¼ĞµĞ½",
      "flag": "ğŸ‡¾ğŸ‡ª",
      "code": "YE",
      "dial_code": "+967"
    },
    {
      "name": "Ğ—Ğ°Ğ¼Ğ±Ğ¸Ñ",
      "flag": "ğŸ‡¿ğŸ‡²",
      "code": "ZM",
      "dial_code": "+260"
    },
    {
      "name": "Ğ—Ğ¸Ğ¼Ğ±Ğ°Ğ±Ğ²Ğµ",
      "flag": "ğŸ‡¿ğŸ‡¼",
      "code": "ZW",
      "dial_code": "+263"
    }
  ]
}
